NORAD_CAT_ID,OBJECT_NAME,OBJECT_TYPE,EPOCH,MEAN_MOTION,ECCENTRICITY,INCLINATION,RA_OF_ASC_NODE,ARG_OF_PERICENTER,MEAN_ANOMALY,BSTAR,MEAN_MOTION_DOT,MEAN_MOTION_DDOT,TLE_LINE0,TLE_LINE1,TLE_LINE2,SEMIMAJOR_AXIS,PERIOD,APOGEE,PERIGEE,DECAYED
54158.0,STARLINK-5297,PAYLOAD,2023-07-27 02:31:54,15.08838756,7.38e-05,53.2186,348.53,56.5989,303.5073,0.00011299,1.511e-05,0.0,0 STARLINK-5297,1 54158U 22141B   23208.10548852  .00001511  00000-0  11299-3 0  9994,2 54158  53.2186 348.5300 0000738  56.5989 303.5073 15.08838756 41303,6917.884,95.438,540.26,539.239,0.0
54158.0,STARLINK-5297,PAYLOAD,2023-07-28 08:44:14,15.08844925,0.0001162,53.2178,342.8786,71.3458,288.766,-3.2149e-05,-8e-06,0.0,0 STARLINK-5297,1 54158U 22141B   23209.36405504 -.00000800  00000-0 -32149-4 0  9999,2 54158  53.2178 342.8786 0001162  71.3458 288.7660 15.08844925 41498,6917.865,95.437,540.534,538.926,0.0
54158.0,STARLINK-5297,PAYLOAD,2023-07-29 02:13:27,15.08850675,5.57e-05,53.2169,339.6069,103.8647,256.2407,5.1265e-05,5.29e-06,0.0,0 STARLINK-5297,1 54158U 22141B   23210.09268423  .00000529  00000-0  51265-4 0  9994,2 54158  53.2169 339.6069 0000557 103.8647 256.2407 15.08850675 41605,6917.848,95.437,540.098,539.327,0.0
54158.0,STARLINK-5297,PAYLOAD,2023-07-29 08:35:01,15.08839638,8.16e-05,53.2171,338.4176,78.234,281.8743,0.00017194,2.45e-05,0.0,0 STARLINK-5297,1 54158U 22141B   23210.35765059  .00002450  00000-0  17194-3 0  9997,2 54158  53.2171 338.4176 0000816  78.2340 281.8743 15.08839638 41644,6917.881,95.438,540.311,539.182,0.0
54158.0,STARLINK-5297,PAYLOAD,2023-07-30 17:58:06,15.08846222,7.52e-05,53.2174,332.1711,100.6698,259.4379,4.1161e-05,3.68e-06,0.0,0 STARLINK-5297,1 54158U 22141B   23211.74868686  .00000368  00000-0  41161-4 0  9999,2 54158  53.2174 332.1711 0000752 100.6698 259.4379 15.08846222 41854,6917.861,95.437,540.247,539.206,0.0
54158.0,STARLINK-5297,PAYLOAD,2023-07-31 06:41:12,15.0883745,8.35e-05,53.2175,329.7919,93.1957,266.9131,2.9254e-05,1.78e-06,0.0,0 STARLINK-5297,1 54158U 22141B   23212.27861235  .00000178  00000-0  29254-4 0  9999,2 54158  53.2175 329.7919 0000835  93.1957 266.9131 15.08837450 41934,6917.888,95.438,540.331,539.176,0.0
54158.0,STARLINK-5297,PAYLOAD,2023-07-31 14:38:07,15.0884435,7.47e-05,53.2177,328.3063,100.2839,259.8237,6.2965e-05,7.15e-06,0.0,0 STARLINK-5297,1 54158U 22141B   23212.60980725  .00000715  00000-0  62965-4 0  9995,2 54158  53.2177 328.3063 0000747 100.2839 259.8237 15.08844350 41982,6917.867,95.437,540.249,539.215,0.0
54158.0,STARLINK-5297,PAYLOAD,2023-08-01 11:18:08,15.08836803,8.16e-05,53.2178,324.4416,107.6486,252.4595,1.7714e-05,-6e-08,0.0,0 STARLINK-5297,1 54158U 22141B   23213.47093433 -.00000006  00000-0  17714-4 0  9998,2 54158  53.2178 324.4416 0000816 107.6486 252.4595 15.08836803 42114,6917.89,95.438,540.32,539.191,0.0
54158.0,STARLINK-5297,PAYLOAD,2023-08-01 17:39:40,15.08842471,7.58e-05,53.2178,323.2504,96.7034,263.4045,5.9126e-05,6.54e-06,0.0,0 STARLINK-5297,1 54158U 22141B   23213.73588957  .00000654  00000-0  59126-4 0  9998,2 54158  53.2178 323.2504 0000758  96.7034 263.4045 15.08842471 42155,6917.873,95.437,540.262,539.213,0.0
54158.0,STARLINK-5297,PAYLOAD,2023-08-02 06:22:46,15.08831512,0.000108,53.2181,320.8721,118.2867,241.8234,5.0047e-05,5.09e-06,0.0,0 STARLINK-5297,1 54158U 22141B   23214.26581851  .00000509  00000-0  50047-4 0  9995,2 54158  53.2181 320.8721 0001080 118.2867 241.8234 15.08831512 42239,6917.906,95.438,540.518,539.024,0.0
54158.0,STARLINK-5297,PAYLOAD,2023-08-02 15:55:05,15.08837806,0.0001334,53.2184,319.0887,131.8831,228.2275,5.8872e-05,6.49e-06,0.0,0 STARLINK-5297,1 54158U 22141B   23214.66325443  .00000649  00000-0  58872-4 0  9991,2 54158  53.2184 319.0887 0001334 131.8831 228.2275 15.08837806 42291,6917.887,95.438,540.675,538.829,0.0
54158.0,STARLINK-5297,PAYLOAD,2023-08-03 14:10:28,15.08847,8.46e-05,53.2171,314.9271,98.9835,261.1253,6.8782e-05,8.07e-06,0.0,0 STARLINK-5297,1 54158U 22141B   23215.59061083  .00000807  00000-0  68782-4 0  9998,2 54158  53.2171 314.9271 0000846  98.9835 261.1253 15.08847000 42437,6917.859,95.437,540.309,539.139,0.0
54158.0,STARLINK-5297,PAYLOAD,2023-08-04 10:50:30,15.08859301,0.0001294,53.2171,311.0616,64.5263,295.5863,-0.00037661,-6.28e-05,0.0,0 STARLINK-5297,1 54158U 22141B   23216.45173994 -.00006280  00000-0 -37661-3 0  9993,2 54158  53.2171 311.0616 0001294  64.5263 295.5863 15.08859301 42569,6917.821,95.436,540.582,538.791,0.0
54158.0,STARLINK-5297,PAYLOAD,2023-08-04 14:01:16,15.08838745,9.02e-05,53.2177,310.4639,88.9907,271.1188,1.1322e-05,-1.08e-06,0.0,0 STARLINK-5297,1 54158U 22141B   23216.58422065 -.00000108  00000-0  11322-4 0  9992,2 54158  53.2177 310.4639 0000902  88.9907 271.1188 15.08838745 42584,6917.884,95.438,540.373,539.125,0.0
54158.0,STARLINK-5297,PAYLOAD,2023-08-05 10:41:16,15.08849069,9.1e-05,53.2175,306.5986,86.96,273.1496,7.827e-05,9.58e-06,0.0,0 STARLINK-5297,1 54158U 22141B   23217.44533215  .00000958  00000-0  78270-4 0  9995,2 54158  53.2175 306.5986 0000910  86.9600 273.1496 15.08849069 42710,6917.853,95.437,540.347,539.088,0.0
54158.0,STARLINK-5297,PAYLOAD,2023-08-05 23:24:21,15.08862907,9.33e-05,53.217,304.226,89.0793,271.0306,-4.2471e-05,-9.64e-06,0.0,0 STARLINK-5297,1 54158U 22141B   23217.97524312 -.00000964  00000-0 -42471-4 0  9994,2 54158  53.2170 304.2260 0000933  89.0793 271.0306 15.08862907 42798,6917.81,95.436,540.321,539.03,0.0
54158.0,STARLINK-5297,PAYLOAD,2023-08-06 10:32:04,15.08831731,0.000114,53.2168,302.1409,76.2238,283.8881,6.9567e-06,-1.77e-06,0.0,0 STARLINK-5297,1 54158U 22141B   23218.43894401 -.00000177  00000-0  69567-5 0  9996,2 54158  53.2168 302.1409 0001140  76.2238 283.8881 15.08831731 42868,6917.906,95.438,540.559,538.982,0.0
54158.0,STARLINK-5297,PAYLOAD,2023-08-07 08:47:28,15.08844917,0.0001082,53.2165,297.9766,92.3982,267.7134,6.0465e-06,-1.92e-06,0.0,0 STARLINK-5297,1 54158U 22141B   23219.36629910 -.00000192  00000-0  60465-5 0  9995,2 54158  53.2165 297.9766 0001082  92.3982 267.7134 15.08844917 43001,6917.865,95.437,540.479,538.982,0.0
54158.0,STARLINK-5297,PAYLOAD,2023-08-08 11:49:02,15.08838212,0.0001016,53.2167,292.9229,90.5413,269.5696,0.00040709,6.197e-05,0.0,0 STARLINK-5297,1 54158U 22141B   23220.49238573  .00006197  00000-0  40709-3 0  9999,2 54158  53.2167 292.9229 0001016  90.5413 269.5696 15.08838212 43170,6917.886,95.438,540.454,539.048,0.0
54158.0,STARLINK-5297,PAYLOAD,2023-08-09 08:29:03,15.08833913,0.00011,53.2172,289.0568,86.6881,273.4237,-4.2991e-05,-9.72e-06,0.0,0 STARLINK-5297,1 54158U 22141B   23221.35350748 -.00000972  00000-0 -42991-4 0  9997,2 54158  53.2172 289.0568 0001100  86.6881 273.4237 15.08833913 43301,6917.899,95.438,540.525,539.003,0.0
54158.0,STARLINK-5297,PAYLOAD,2023-08-10 11:30:36,15.08844604,0.0001039,53.2165,284.0009,90.1184,269.9928,0.00011158,1.489e-05,0.0,0 STARLINK-5297,1 54158U 22141B   23222.47958351  .00001489  00000-0  11158-3 0  9997,2 54158  53.2165 284.0009 0001039  90.1184 269.9928 15.08844604 43479,6917.866,95.437,540.45,539.013,0.0
54158.0,STARLINK-5297,PAYLOAD,2023-08-11 03:24:27,15.088387,0.0001033,53.2163,281.0272,91.4934,268.6177,0.0001452,2.024e-05,0.0,0 STARLINK-5297,1 54158U 22141B   23223.14198728  .00002024  00000-0  14520-3 0  9998,2 54158  53.2163 281.0272 0001033  91.4934 268.6177 15.08838700 43570,6917.884,95.438,540.464,539.035,0.0
54158.0,STARLINK-5297,PAYLOAD,2023-08-12 09:36:47,15.08839244,0.0001135,53.2155,275.3769,68.3785,291.7328,1.7673e-05,-7e-08,0.0,0 STARLINK-5297,1 54158U 22141B   23224.40054941 -.00000007  00000-0  17673-4 0  9999,2 54158  53.2155 275.3769 0001135  68.3785 291.7328 15.08839244 43768,6917.883,95.438,540.533,538.963,0.0
54158.0,STARLINK-5297,PAYLOAD,2023-08-12 12:47:33,15.08844483,0.0001058,53.2153,274.7818,74.5379,285.573,9.7997e-05,1.272e-05,0.0,0 STARLINK-5297,1 54158U 22141B   23224.53302658  .00001272  00000-0  97997-4 0  9995,2 54158  53.2153 274.7818 0001058  74.5379 285.5730 15.08844483 43787,6917.867,95.437,540.464,539.0,0.0
54158.0,STARLINK-5297,PAYLOAD,2023-08-13 14:13:43,15.08842162,0.0001003,53.2151,270.0227,89.8029,270.3078,0.00011994,1.622e-05,0.0,0 STARLINK-5297,1 54158U 22141B   23225.59286846  .00001622  00000-0  11994-3 0  9993,2 54158  53.2151 270.0227 0001003  89.8029 270.3078 15.08842162 43946,6917.874,95.437,540.433,539.045,0.0
54158.0,STARLINK-5297,PAYLOAD,2023-08-15 02:47:36,15.08839186,0.0001123,53.2151,263.1826,87.6406,272.4715,8.8674e-05,1.124e-05,0.0,0 STARLINK-5297,1 54158U 22141B   23227.11638899  .00001124  00000-0  88674-4 0  9999,2 54158  53.2151 263.1826 0001123  87.6406 272.4715 15.08839186 44171,6917.883,95.438,540.525,538.971,0.0
54158.0,STARLINK-5297,PAYLOAD,2023-08-16 02:38:23,15.08832959,0.0001085,53.2152,258.7225,94.9095,265.2021,0.00019371,2.796e-05,0.0,0 STARLINK-5297,1 54158U 22141B   23228.10999284  .00002796  00000-0  19371-3 0  9990,2 54158  53.2152 258.7225 0001085  94.9095 265.2021 15.08832959 44325,6917.902,95.438,540.518,539.016,0.0
54158.0,STARLINK-5297,PAYLOAD,2023-08-17 07:15:19,15.08845096,0.0001171,53.2162,253.3695,93.4084,266.7042,9.3695e-05,1.204e-05,0.0,0 STARLINK-5297,1 54158U 22141B   23229.30230628  .00001204  00000-0  93695-4 0  9998,2 54158  53.2162 253.3695 0001171  93.4084 266.7042 15.08845096 44501,6917.865,95.437,540.54,538.92,0.0
54158.0,STARLINK-5297,PAYLOAD,2023-08-18 02:19:57,15.08834213,0.0001219,53.2162,249.8013,92.419,267.6942,7.2682e-05,8.69e-06,0.0,0 STARLINK-5297,1 54158U 22141B   23230.09719484  .00000869  00000-0  72682-4 0  9997,2 54158  53.2162 249.8013 0001219  92.4190 267.6942 15.08834213 44626,6917.898,95.438,540.606,538.92,0.0
54158.0,STARLINK-5297,PAYLOAD,2023-08-19 08:32:16,15.08841498,0.0001282,53.2165,244.1518,89.0847,271.0292,5.7717e-05,6.31e-06,0.0,0 STARLINK-5297,1 54158U 22141B   23231.35575210  .00000631  00000-0  57717-4 0  9993,2 54158  53.2165 244.1518 0001282  89.0847 271.0292 15.08841498 44819,6917.876,95.437,540.628,538.854,0.0
